OBJECT_NAME,OBJECT_ID,EPOCH,MEAN_MOTION,ECCENTRICITY,INCLINATION,RA_OF_ASC_NODE,ARG_OF_PERICENTER,MEAN_ANOMALY,EPHEMERIS_TYPE,CLASSIFICATION_TYPE,NORAD_CAT_ID,ELEMENT_SET_NO,REV_AT_EPOCH,BSTAR,MEAN_MOTION_DOT,MEAN_MOTION_DDOT
H-2A R/B,2006-002B,2026-06-06T10:36:14.393664,15.17929482,.00497692,98.2559,312.3010,299.7774,59.8513,0,U,28932,999,10789,.43195494E-3,.8972E-4,0
RESURS-DK 1,2006-021A,2026-06-06T20:31:39.036288,15.13170757,.00063345,69.9339,6.2973,300.4331,59.6209,0,U,29228,999,10101,.15266689E-3,.2607E-4,0
CZ-4B R/B,2006-046C,2026-06-06T20:03:58.051584,15.17707544,.00315004,97.5454,202.4753,320.4605,39.4331,0,U,29507,999,7356,.21953748E-3,.4412E-4,0
CZ-2C R/B,2007-010B,2026-06-06T13:30:51.611904,14.20273789,.0059635,98.4090,266.4343,36.8440,323.6813,0,U,31114,999,99233,.70506E-4,.113E-5,0
COSMO-SKYMED 1,2007-023A,2026-06-06T21:48:36.983232,14.97054692,.00012913,97.8860,349.6792,80.4734,279.6633,0,U,31598,999,2825,.19182169E-3,.215E-4,0
COSMOS 2428,2007-029A,2026-06-06T15:58:52.984992,14.12930557,.00072839,70.9377,16.5693,155.2577,204.8895,0,U,31792,999,97666,-.71709908E-4,-.182E-5,0
SL-16 R/B,2007-029B,2026-06-06T18:39:32.033376,14.14849090,.00022496,70.9758,345.1122,258.3156,112.7238,0,U,31793,999,97797,.16895193E-3,.278E-5,0
KORONAS-FOTON,2009-003A,2026-06-06T21:56:20.066496,15.45507879,.00105406,82.4292,182.9743,182.0296,178.0911,0,U,33504,999,95951,.24131236E-3,.11636E-3,0
CZ-2C R/B,2011-030B,2026-06-06T10:43:04.964736,14.81445560,.00537251,97.8651,113.0273,62.2187,50.9381,0,U,37731,999,80323,.1912982E-3,.1481E-4,0
H-2A R/B,2012-025E,2026-06-06T15:41:24.673920,14.95658028,.004442,98.4816,131.9317,23.0673,337.2527,0,U,38341,999,76151,.32896567E-3,.366E-4,0
SHIJIAN-16 (SJ-16),2013-057A,2026-06-06T22:00:41.005728,14.92591270,.00169851,74.9732,16.1349,254.5804,105.3508,0,U,39358,999,68481,.16374423E-3,.166E-4,0
SL-4 R/B,2014-021B,2026-06-06T13:31:57.153216,15.41723399,.0091597,51.6055,262.8077,67.3204,293.7434,0,U,39679,999,66997,.32507E-3,.15814E-3,0
ALOS-2,2014-029A,2026-06-06T22:14:18.539808,14.79467529,.00016798,97.9212,255.2373,89.7986,270.3418,0,U,39766,999,65006,.19877568E-3,.1433E-4,0
YAOGAN-29,2015-069A,2026-06-06T22:08:35.683008,14.83078300,.00029879,98.0031,186.5393,70.7085,289.4451,0,U,41038,999,56910,.95583255E-4,.724E-5,0
ASTRO-H (HITOMI),2016-012A,2026-06-06T15:49:41.022048,15.10466098,.00095569,30.9975,142.1764,148.3935,211.7279,0,U,41337,999,56569,.15862767E-3,.2773E-4,0
HXMT (HUIYAN),2017-034A,2026-06-06T22:31:20.481600,15.18402182,.00301705,43.0131,240.1073,79.4545,280.9700,0,U,42758,999,49610,.2628497E-3,.5327E-4,0
SAOCOM 1A,2018-076A,2026-06-06T22:36:23.894208,14.82167046,.00015106,97.8884,344.8394,80.2470,279.8914,0,U,43641,999,41458,.73322626E-4,.532E-5,0
H-2A R/B,2018-084L,2026-06-06T19:55:34.063968,15.44753789,.0024357,98.8587,34.4596,75.2215,285.1725,0,U,43682,999,41952,.46775614E-3,.22032E-3,0
SAOCOM 1B,2020-059A,2026-06-06T21:44:12.548256,14.82163774,.00015188,97.8888,343.8981,76.8178,283.3205,0,U,46265,999,31196,.67096898E-4,.482E-5,0
CSS (TIANHE),2021-035A,2026-06-06T16:10:17.689440,15.60361832,.00091504,41.4692,25.9625,355.7318,4.3441,0,U,48274,999,29152,.3421058E-3,.28669E-3,0
COSMOS 2550,2021-056A,2026-06-06T23:34:06.738816,15.33733170,.00086965,67.1421,130.7756,266.6724,93.3436,0,U,48865,999,27715,.19152671E-3,.6096E-4,0
CZ-2C R/B,2022-058K,2026-06-05T11:12:48.006720,15.61032214,.00332157,50.1841,224.4658,218.6451,141.2145,0,U,52794,999,22381,.44812892E-3,.39184E-3,0
CZ-2C R/B,2022-132E,2026-06-06T18:27:54.177984,15.70302046,.00170194,97.2912,164.3376,116.3837,243.9175,0,U,54039,999,20431,.50981816E-3,.6268E-3,0
GSLV R/B,2022-138AN,2026-06-06T16:35:43.923840,14.97211532,.00211235,87.3804,136.5095,180.5244,179.5969,0,U,54149,999,19724,.28370665E-3,.3323E-4,0
XRISM,2023-137A,2026-06-06T23:04:04.617984,15.12376045,.00077979,31.0024,65.8375,222.8626,137.1405,0,U,57800,999,15131,.29210186E-3,.5296E-4,0
ACS3,2024-077B,2026-06-06T15:40:45.371424,13.93754077,.0047293,97.1698,78.7933,67.6130,293.0038,0,U,59588,999,10657,.37418983E-1,.50007E-3,0
CZ-8A R/B,2025-231K,2026-06-06T01:57:51.897024,14.30151850,.0116476,50.0038,86.5627,184.9058,175.0725,0,U,66004,999,3335,.41733907E-4,-.47E-6,0
SZ-21 MODULE,2025-246C,2026-06-06T07:35:07.958112,15.75457395,.00071848,41.4728,14.9847,283.9983,76.0062,0,U,66515,999,3202,.36001641E-3,.56445E-3,0
